IONOSFERA-M 2           
1 61736U 24199B   26203.60186844  .00000018  00000+0  27512-4 0  9997
2 61736  98.7124  76.3027 0000795 131.1952 228.9295 14.22763454135862
PRSC-EO1                
1 62725U 25012A   26203.59756130  .00006878  00000+0  34433-3 0  9999
2 62725  97.4210 275.3617 0007256 125.7847 234.4062 15.17686355 83562
BIOMASS                 
1 63772U 25090A   26203.08190057  .00000607  00000+0  11542-3 0  9992
2 63772  98.0754  29.8887 0001465  88.6377 271.4995 14.67536612 65804
GOSAT-GW (IBUKI GW)     
1 64694U 25141A   26203.57632458  .00000019  00000+0  11736-4 0  9996
2 64694  98.0564 140.3185 0001436  85.8395 274.2974 14.67557037 57032
IONOSFERA-M 3           
1 64876U 25155A   26203.58089919  .00000041  00000+0  38386-4 0  9997
2 64876  98.6046 164.5991 0002449 101.1303 259.0150 14.21491782 51433
IONOSFERA-M 4           
1 64877U 25155B   26203.61567955  .00000035  00000+0  35463-4 0  9999
2 64877  98.6045 164.5501 0001901  92.0898 268.0498 14.21494161 51438
MICROCARB               
1 64899U 25156A   26203.20809284  .00000429  00000+0  74590-4 0  9994
2 64899  98.0069 279.8115 0018144 149.0641 211.1639 14.72890768 53122
CO3D 3                  
1 64900U 25156B   26203.53446867  .00003669  00000+0  17250-3 0  9995
2 64900  97.4333 281.7196 0001725  89.4147 270.7286 15.20207708 54904
CO3D 4                  
1 64901U 25156C   26203.53462459  .00003929  00000+0  18447-3 0  9999
2 64901  97.4332 281.7196 0002103 139.6276 220.5116 15.20208033 54903
CO3D 2                  
1 64902U 25156D   26203.50127692  .00004130  00000+0  19377-3 0  9992
2 64902  97.4334 281.5855 0001186  92.0575 268.0796 15.20206218 54892
CO3D 1                  
1 64903U 25156E   26203.50142750  .00004548  00000+0  21314-3 0  9992
2 64903  97.4332 281.5856 0001330  97.9564 262.1822 15.20193685 54893
PRSC-S1                 
1 65055U 25164A   26203.00091670  .00004720  00000+0  32392-3 0  9999
2 65055  41.1302  91.7034 0007620 238.4405 121.5665 15.06676582 53683
SENTINEL-6B             
1 66514U 25264A   26203.29807608 -.00000062  00000+0 -36263-5 0  9998
2 66514  66.0410  62.2532 0007832 268.4932  91.5186 12.80930316 31664
CAS500-3                
1 66655U 25274F   26203.30897997  .00000945  00000+0  10772-3 0  9990
2 66655  97.7433 130.5612 0005693  17.9033 342.2384 14.88395594 35377
CSG-3                   
1 67304U 26001A   26203.43952727  .00000260  00000+0  39230-4 0  9999
2 67304  97.8899  26.5329 0001453  94.4489 265.6890 14.82166983 29689
PRSC-E03                
1 68835U 26092A   26203.51092225  .00001617  00000+0  11369-3 0  9995
2 68835  38.0000 241.3573 0004911 296.2140  63.8116 15.06830155 13280
CAS500-2                
1 69013U 26100AK  26203.29227646  .00005623  00000+0  26272-3 0  9996
2 69013  97.3842 100.4676 0007709 234.0961 125.9559 15.20173235 12149
