OBJECT_NAME,OBJECT_ID,EPOCH,MEAN_MOTION,ECCENTRICITY,INCLINATION,RA_OF_ASC_NODE,ARG_OF_PERICENTER,MEAN_ANOMALY,EPHEMERIS_TYPE,CLASSIFICATION_TYPE,NORAD_CAT_ID,ELEMENT_SET_NO,REV_AT_EPOCH,BSTAR,MEAN_MOTION_DOT,MEAN_MOTION_DDOT
IONOSFERA-M 2,2024-199B,2026-07-22T14:26:41.433216,14.22763454,.00007951,98.7124,76.3027,131.1952,228.9295,0,U,61736,999,13586,.2751226E-4,.18E-6,0
PRSC-EO1,2025-012A,2026-07-22T14:20:29.296320,15.17686355,.00072565,97.4210,275.3617,125.7847,234.4062,0,U,62725,999,8356,.34432836E-3,.6878E-4,0
BIOMASS,2025-090A,2026-07-22T01:57:56.209248,14.67536612,.00014651,98.0754,29.8887,88.6377,271.4995,0,U,63772,999,6580,.11542485E-3,.607E-5,0
GOSAT-GW (IBUKI GW),2025-141A,2026-07-22T13:49:54.443712,14.67557037,.00014368,98.0564,140.3185,85.8395,274.2974,0,U,64694,999,5703,.11735791E-4,.19E-6,0
IONOSFERA-M 3,2025-155A,2026-07-22T13:56:29.690016,14.21491782,.00024499,98.6046,164.5991,101.1303,259.0150,0,U,64876,999,5143,.38385947E-4,.41E-6,0
IONOSFERA-M 4,2025-155B,2026-07-22T14:46:34.713120,14.21494161,.00019018,98.6045,164.5501,92.0898,268.0498,0,U,64877,999,5143,.35463347E-4,.35E-6,0
MICROCARB,2025-156A,2026-07-22T04:59:39.221376,14.72890768,.00181443,98.0069,279.8115,149.0641,211.1639,0,U,64899,999,5312,.74589613E-4,.429E-5,0
CO3D 3,2025-156B,2026-07-22T12:49:38.093088,15.20207708,.0001725,97.4333,281.7196,89.4147,270.7286,0,U,64900,999,5490,.17249618E-3,.3669E-4,0
CO3D 4,2025-156C,2026-07-22T12:49:51.564576,15.20208033,.00021037,97.4332,281.7196,139.6276,220.5116,0,U,64901,999,5490,.1844704E-3,.3929E-4,0
CO3D 2,2025-156D,2026-07-22T12:01:50.325888,15.20206218,.0001186,97.4334,281.5855,92.0575,268.0796,0,U,64902,999,5489,.19376727E-3,.413E-4,0
CO3D 1,2025-156E,2026-07-22T12:02:03.336000,15.20193685,.00013308,97.4332,281.5856,97.9564,262.1822,0,U,64903,999,5489,.21314021E-3,.4548E-4,0
PRSC-S1,2025-164A,2026-07-22T00:01:19.202880,15.06676582,.00076202,41.1302,91.7034,238.4405,121.5665,0,U,65055,999,5368,.32391536E-3,.472E-4,0
SENTINEL-6B,2025-264A,2026-07-22T07:09:13.773312,12.80930316,.00078328,66.0410,62.2532,268.4932,91.5186,0,U,66514,999,3166,-.3626319E-5,-.62E-6,0
CAS500-3,2025-274F,2026-07-22T07:24:55.869408,14.88395594,.00056935,97.7433,130.5612,17.9033,342.2384,0,U,66655,999,3537,.10772186E-3,.945E-5,0
CSG-3,2026-001A,2026-07-22T10:32:55.156128,14.82166983,.00014538,97.8899,26.5329,94.4489,265.6890,0,U,67304,999,2968,.39230395E-4,.26E-5,0
PRSC-E03,2026-092A,2026-07-22T12:15:43.682400,15.06830155,.00049112,38.0000,241.3573,296.2140,63.8116,0,U,68835,999,1328,.11368782E-3,.1617E-4,0
CAS500-2,2026-100AK,2026-07-22T07:00:52.686144,15.20173235,.00077094,97.3842,100.4676,234.0961,125.9559,0,U,69013,999,1214,.26272093E-3,.5623E-4,0
